[{"OBJECT_NAME":"SL-12 R/B(2)","OBJECT_ID":"1983-100F","EPOCH":"2026-03-06T19:11:04.421472","MEAN_MOTION":1.01049564,"ECCENTRICITY":0.0018293,"INCLINATION":7.4621,"RA_OF_ASC_NODE":303.2753,"ARG_OF_PERICENTER":156.0077,"MEAN_ANOMALY":12.0391,"EPHEMERIS_TYPE":0,"CLASSIFICATION_TYPE":"U","NORAD_CAT_ID":14394,"ELEMENT_SET_NO":999,"REV_AT_EPOCH":15598,"BSTAR":0,"MEAN_MOTION_DOT":1.19e-6,"MEAN_MOTION_DDOT":0},{"OBJECT_NAME":"INTELSAT 507","OBJECT_ID":"1983-105A","EPOCH":"2026-03-06T06:37:02.389440","MEAN_MOTION":0.99689491,"ECCENTRICITY":0.00032867,"INCLINATION":12.0928,"RA_OF_ASC_NODE":331.8271,"ARG_OF_PERICENTER":48.3432,"MEAN_ANOMALY":139.0442,"EPHEMERIS_TYPE":0,"CLASSIFICATION_TYPE":"U","NORAD_CAT_ID":14421,"ELEMENT_SET_NO":999,"REV_AT_EPOCH":13620,"BSTAR":0,"MEAN_MOTION_DOT":-3.7e-7,"MEAN_MOTION_DDOT":0},{"OBJECT_NAME":"SL-12 R/B(2)","OBJECT_ID":"1983-118F","EPOCH":"2026-03-06T14:13:51.764736","MEAN_MOTION":1.00233342,"ECCENTRICITY":0.00483168,"INCLINATION":8.7365,"RA_OF_ASC_NODE":311.6479,"ARG_OF_PERICENTER":343.1212,"MEAN_ANOMALY":160.3065,"EPHEMERIS_TYPE":0,"CLASSIFICATION_TYPE":"U","NORAD_CAT_ID":14548,"ELEMENT_SET_NO":999,"REV_AT_EPOCH":13687,"BSTAR":0,"MEAN_MOTION_DOT":-1.15e-6,"MEAN_MOTION_DDOT":0},{"OBJECT_NAME":"OPS 0441","OBJECT_ID":"1984-009A","EPOCH":"2026-03-06T12:55:38.786304","MEAN_MOTION":1.00318156,"ECCENTRICITY":0.08812653,"INCLINATION":6.0584,"RA_OF_ASC_NODE":2.1816,"ARG_OF_PERICENTER":24.5348,"MEAN_ANOMALY":178.0318,"EPHEMERIS_TYPE":0,"CLASSIFICATION_TYPE":"U","NORAD_CAT_ID":14675,"ELEMENT_SET_NO":999,"REV_AT_EPOCH":671,"BSTAR":0,"MEAN_MOTION_DOT":4.4e-7,"MEAN_MOTION_DDOT":0},{"OBJECT_NAME":"TITAN 34D TRANSTAGE R/B","OBJECT_ID":"1984-009C","EPOCH":"2026-03-06T01:54:23.852736","MEAN_MOTION":0.99451344,"ECCENTRICITY":0.10420251,"INCLINATION":6.0733,"RA_OF_ASC_NODE":0.2118,"ARG_OF_PERICENTER":103.0522,"MEAN_ANOMALY":268.7795,"EPHEMERIS_TYPE":0,"CLASSIFICATION_TYPE":"U","NORAD_CAT_ID":14677,"ELEMENT_SET_NO":999,"REV_AT_EPOCH":2484,"BSTAR":0,"MEAN_MOTION_DOT":-1.42e-6,"MEAN_MOTION_DDOT":0},{"OBJECT_NAME":"RADUGA 14","OBJECT_ID":"1984-016A","EPOCH":"2026-03-06T12:04:41.023776","MEAN_MOTION":1.00297399,"ECCENTRICITY":5.514e-5,"INCLINATION":8.7687,"RA_OF_ASC_NODE":311.4668,"ARG_OF_PERICENTER":123.0281,"MEAN_ANOMALY":341.9643,"EPHEMERIS_TYPE":0,"CLASSIFICATION_TYPE":"U","NORAD_CAT_ID":14725,"ELEMENT_SET_NO":999,"REV_AT_EPOCH":11707,"BSTAR":0,"MEAN_MOTION_DOT":-7.0e-7,"MEAN_MOTION_DDOT":0},{"OBJECT_NAME":"COSMOS 1540","OBJECT_ID":"1984-022A","EPOCH":"2026-03-06T13:58:32.486880","MEAN_MOTION":1.00282493,"ECCENTRICITY":0.00076711,"INCLINATION":9.5358,"RA_OF_ASC_NODE":305.3525,"ARG_OF_PERICENTER":300.624,"MEAN_ANOMALY":199.9421,"EPHEMERIS_TYPE":0,"CLASSIFICATION_TYPE":"U","NORAD_CAT_ID":14783,"ELEMENT_SET_NO":999,"REV_AT_EPOCH":11999,"BSTAR":0,"MEAN_MOTION_DOT":-7.4e-7,"MEAN_MOTION_DDOT":0},{"OBJECT_NAME":"COSMOS 1546","OBJECT_ID":"1984-031A","EPOCH":"2026-03-06T14:00:10.694304","MEAN_MOTION":1.00257553,"ECCENTRICITY":0.00251959,"INCLINATION":8.8738,"RA_OF_ASC_NODE":312.114,"ARG_OF_PERICENTER":13.247,"MEAN_ANOMALY":125.2936,"EPHEMERIS_TYPE":0,"CLASSIFICATION_TYPE":"U","NORAD_CAT_ID":14867,"ELEMENT_SET_NO":999,"REV_AT_EPOCH":4634,"BSTAR":0,"MEAN_MOTION_DOT":-1.11e-6,"MEAN_MOTION_DDOT":0},{"OBJECT_NAME":"STTW-T2","OBJECT_ID":"1984-035A","EPOCH":"2026-03-06T14:35:53.307168","MEAN_MOTION":1.00267928,"ECCENTRICITY":0.00056298,"INCLINATION":9.6316,"RA_OF_ASC_NODE":318.541,"ARG_OF_PERICENTER":196.5215,"MEAN_ANOMALY":3.2011,"EPHEMERIS_TYPE":0,"CLASSIFICATION_TYPE":"U","NORAD_CAT_ID":14899,"ELEMENT_SET_NO":999,"REV_AT_EPOCH":4634,"BSTAR":0,"MEAN_MOTION_DOT":-3.26e-6,"MEAN_MOTION_DDOT":0},{"OBJECT_NAME":"TITAN 34D TRANSTAGE R/B","OBJECT_ID":"1984-037B","EPOCH":"2026-03-06T03:09:51.873696","MEAN_MOTION":1.01164702,"ECCENTRICITY":0.00324157,"INCLINATION":8.9788,"RA_OF_ASC_NODE":311.7332,"ARG_OF_PERICENTER":325.2423,"MEAN_ANOMALY":34.4966,"EPHEMERIS_TYPE":0,"CLASSIFICATION_TYPE":"U","NORAD_CAT_ID":14931,"ELEMENT_SET_NO":999,"REV_AT_EPOCH":2489,"BSTAR":0,"MEAN_MOTION_DOT":-3.43e-6,"MEAN_MOTION_DDOT":0},{"OBJECT_NAME":"GORIZONT 9","OBJECT_ID":"1984-041A","EPOCH":"2026-03-06T14:05:15.990432","MEAN_MOTION":1.0031783,"ECCENTRICITY":0.00057963,"INCLINATION":8.942,"RA_OF_ASC_NODE":312.9861,"ARG_OF_PERICENTER":295.709,"MEAN_ANOMALY":210.7011,"EPHEMERIS_TYPE":0,"CLASSIFICATION_TYPE":"U","NORAD_CAT_ID":14940,"ELEMENT_SET_NO":999,"REV_AT_EPOCH":12091,"BSTAR":0,"MEAN_MOTION_DOT":-1.96e-6,"MEAN_MOTION_DDOT":0},{"OBJECT_NAME":"SL-12 R/B(2)","OBJECT_ID":"1984-022F","EPOCH":"2026-03-06T12:20:38.647680","MEAN_MOTION":0.9988008,"ECCENTRICITY":0.00216326,"INCLINATION":9.6802,"RA_OF_ASC_NODE":305.7686,"ARG_OF_PERICENTER":147.099,"MEAN_ANOMALY":47.1267,"EPHEMERIS_TYPE":0,"CLASSIFICATION_TYPE":"U","NORAD_CAT_ID":14948,"ELEMENT_SET_NO":999,"REV_AT_EPOCH":16025,"BSTAR":0,"MEAN_MOTION_DOT":-2.75e-6,"MEAN_MOTION_DDOT":0},{"OBJECT_NAME":"SL-12 R/B(2)","OBJECT_ID":"1984-031F","EPOCH":"2026-03-06T11:18:20.416032","MEAN_MOTION":0.99430686,"ECCENTRICITY":0.0013875,"INCLINATION":9.2713,"RA_OF_ASC_NODE":313.277,"ARG_OF_PERICENTER":261.2659,"MEAN_ANOMALY":281.3405,"EPHEMERIS_TYPE":0,"CLASSIFICATION_TYPE":"U","NORAD_CAT_ID":14951,"ELEMENT_SET_NO":999,"REV_AT_EPOCH":11878,"BSTAR":0,"MEAN_MOTION_DOT":-2.5e-6,"MEAN_MOTION_DDOT":0},{"OBJECT_NAME":"ZHONGXING-5","OBJECT_ID":"1984-049A","EPOCH":"2026-03-06T05:06:03.613248","MEAN_MOTION":0.99988688,"ECCENTRICITY":0.00097975,"INCLINATION":14.3934,"RA_OF_ASC_NODE":349.0952,"ARG_OF_PERICENTER":252.8861,"MEAN_ANOMALY":297.297,"EPHEMERIS_TYPE":0,"CLASSIFICATION_TYPE":"U","NORAD_CAT_ID":14985,"ELEMENT_SET_NO":999,"REV_AT_EPOCH":13027,"BSTAR":0,"MEAN_MOTION_DOT":-2.9e-6,"MEAN_MOTION_DDOT":0},{"OBJECT_NAME":"RADUGA 15","OBJECT_ID":"1984-063A","EPOCH":"2026-03-06T14:27:01.656864","MEAN_MOTION":1.00185327,"ECCENTRICITY":0.00018919,"INCLINATION":8.9272,"RA_OF_ASC_NODE":312.4509,"ARG_OF_PERICENTER":250.3163,"MEAN_ANOMALY":281.845,"EPHEMERIS_TYPE":0,"CLASSIFICATION_TYPE":"U","NORAD_CAT_ID":15057,"ELEMENT_SET_NO":999,"REV_AT_EPOCH":14007,"BSTAR":0,"MEAN_MOTION_DOT":-3.24e-6,"MEAN_MOTION_DDOT":0},{"OBJECT_NAME":"COSMOS 1581","OBJECT_ID":"1984-071A","EPOCH":"2026-03-06T05:49:43.797792","MEAN_MOTION":1.99732083,"ECCENTRICITY":0.66934944,"INCLINATION":67.2841,"RA_OF_ASC_NODE":26.393,"ARG_OF_PERICENTER":4.0713,"MEAN_ANOMALY":359.1702,"EPHEMERIS_TYPE":0,"CLASSIFICATION_TYPE":"U","NORAD_CAT_ID":15095,"ELEMENT_SET_NO":999,"REV_AT_EPOCH":27841,"BSTAR":0,"MEAN_MOTION_DOT":-7.79e-6,"MEAN_MOTION_DDOT":0},{"OBJECT_NAME":"GORIZONT 10","OBJECT_ID":"1984-078A","EPOCH":"2026-03-06T18:23:38.967936","MEAN_MOTION":1.0019534,"ECCENTRICITY":0.0003833,"INCLINATION":9.0766,"RA_OF_ASC_NODE":314.0286,"ARG_OF_PERICENTER":340.4466,"MEAN_ANOMALY":359.7379,"EPHEMERIS_TYPE":0,"CLASSIFICATION_TYPE":"U","NORAD_CAT_ID":15144,"ELEMENT_SET_NO":999,"REV_AT_EPOCH":15354,"BSTAR":0,"MEAN_MOTION_DOT":1.11e-6,"MEAN_MOTION_DDOT":0}]
