SL-12 R/B(2)            
1 14394U 83100F   26065.79935673  .00000119  00000+0  00000+0 0  9990
2 14394   7.4621 303.2753 0018293 156.0077  12.0391  1.01049564155989
INTELSAT 507            
1 14421U 83105A   26065.27572210 -.00000037  00000+0  00000+0 0  9993
2 14421  12.0928 331.8271 0003286  48.3432 139.0442  0.99689491136204
SL-12 R/B(2)            
1 14548U 83118F   26065.59296024 -.00000115  00000+0  00000+0 0  9995
2 14548   8.7365 311.6479 0048316 343.1212 160.3065  1.00233342136876
OPS 0441                
1 14675U 84009A   26065.53864336  .00000044  00000+0  00000+0 0  9997
2 14675   6.0584   2.1816 0881265  24.5348 178.0318  1.00318156  6719
TITAN 34D TRANSTAGE R/B 
1 14677U 84009C   26065.07944274 -.00000142  00000+0  00000+0 0  9998
2 14677   6.0733   0.2118 1042025 103.0522 268.7795  0.99451344 24846
RADUGA 14               
1 14725U 84016A   26065.50325259 -.00000070  00000+0  00000+0 0  9994
2 14725   8.7687 311.4668 0000551 123.0281 341.9643  1.00297399117070
COSMOS 1540             
1 14783U 84022A   26065.58232045 -.00000074  00000+0  00000+0 0  9997
2 14783   9.5358 305.3525 0007671 300.6240 199.9421  1.00282493119997
COSMOS 1546             
1 14867U 84031A   26065.58345711 -.00000111  00000+0  00000+0 0  9997
2 14867   8.8738 312.1140 0025195  13.2470 125.2936  1.00257553 46346
STTW-T2                 
1 14899U 84035A   26065.60825587 -.00000326  00000+0  00000+0 0  9991
2 14899   9.6316 318.5410 0005629 196.5215   3.2011  1.00267928 46340
TITAN 34D TRANSTAGE R/B 
1 14931U 84037B   26065.13185039 -.00000343  00000+0  00000+0 0  9998
2 14931   8.9788 311.7332 0032415 325.2423  34.4966  1.01164702 24893
GORIZONT 9              
1 14940U 84041A   26065.58699063 -.00000196  00000+0  00000+0 0  9995
2 14940   8.9420 312.9861 0005796 295.7090 210.7011  1.00317830120910
SL-12 R/B(2)            
1 14948U 84022F   26065.51433620 -.00000275  00000+0  00000+0 0  9998
2 14948   9.6802 305.7686 0021632 147.0990  47.1267  0.99880080160255
SL-12 R/B(2)            
1 14951U 84031F   26065.47106963 -.00000250  00000+0  00000+0 0  9997
2 14951   9.2713 313.2770 0013875 261.2659 281.3405  0.99430686118785
ZHONGXING-5             
1 14985U 84049A   26065.21254182 -.00000290  00000+0  00000+0 0  9996
2 14985  14.3934 349.0952 0009797 252.8861 297.2970  0.99988688130273
RADUGA 15               
1 15057U 84063A   26065.60210251 -.00000324  00000+0  00000+0 0  9993
2 15057   8.9272 312.4509 0001891 250.3163 281.8450  1.00185327140078
COSMOS 1581             
1 15095U 84071A   26065.24286803 -.00000779  00000+0  00000+0 0  9994
2 15095  67.2841  26.3930 6693494   4.0713 359.1702  1.99732083278410
GORIZONT 10             
1 15144U 84078A   26065.76642324  .00000111  00000+0  00000+0 0  9996
2 15144   9.0766 314.0286 0003833 340.4466 359.7379  1.00195340153547
